{"type": "FeatureCollection", "features": [ {"type": "Feature", "properties": {"norad_id": 37028, "name": "FENGYUN 1C DEB", "group": "fengyun-1c-debris", "lat": 42.056575180931745, "lon": 85.79198673511567, "alt_km": 795.9994425917603, "timestamp": "2025-12-15T11:38:37.442321+00:00", "meta": {"OBJECT_NAME": "FENGYUN 1C DEB", "OBJECT_ID": "1999-025EDL", "EPOCH": "2025-12-14T13:03:45.984672", "MEAN_MOTION": 14.22752179, "ECCENTRICITY": 0.0033411, "INCLINATION": 99.2457, "RA_OF_ASC_NODE": 256.3546, "ARG_OF_PERICENTER": 93.2394, "MEAN_ANOMALY": 267.2605, "EPHEMERIS_TYPE": 0, "CLASSIFICATION_TYPE": "U", "NORAD_CAT_ID": 37028, "ELEMENT_SET_NO": 999, "REV_AT_EPOCH": 60501, "BSTAR": 0.0016622383, "MEAN_MOTION_DOT": 3.701e-05, "MEAN_MOTION_DDOT": 0}, "tle": {"line1": "1 37028U 99025EDL 25348.54428223  .00003701  00000+0  16622-2 0  9996", "line2": "2 37028  99.2457 256.3546 0033411  93.2394 267.2605 14.22752179605011"}}, "geometry": {"type": "Point", "coordinates": [85.79198673511567, 42.056575180931745]}}, {"type": "Feature", "properties": {"norad_id": 37036, "name": "FENGYUN 1C DEB", "group": "fengyun-1c-debris", "lat": 66.89512774562694, "lon": -38.96707071382868, "alt_km": 790.5379054955602, "timestamp": "2025-12-15T11:38:37.442331+00:00", "meta": {"OBJECT_NAME": "FENGYUN 1C DEB", "OBJECT_ID": "1999-025EDU", "EPOCH": "2025-12-10T16:41:53.236320", "MEAN_MOTION": 14.03563948, "ECCENTRICITY": 0.01243108, "INCLINATION": 98.7137, "RA_OF_ASC_NODE": 337.5102, "ARG_OF_PERICENTER": 60.8898, "MEAN_ANOMALY": 300.4649, "EPHEMERIS_TYPE": 0, "CLASSIFICATION_TYPE": "U", "NORAD_CAT_ID": 37036, "ELEMENT_SET_NO": 999, "REV_AT_EPOCH": 63719, "BSTAR": 0.00069616367, "MEAN_MOTION_DOT": 1.128e-05, "MEAN_MOTION_DDOT": 0}, "tle": {"line1": "1 37036U 99025EDU 25344.69575505  .00001128  00000+0  69616-3 0  9996", "line2": "2 37036  98.7137 337.5102 0124310  60.8898 300.4649 14.03563948637192"}}, "geometry": {"type": "Point", "coordinates": [-38.96707071382868, 66.89512774562694]}}, {"type": "Feature", "properties": {"norad_id": 37044, "name": "FENGYUN 1C DEB", "group": "fengyun-1c-debris", "lat": -72.6129959734417, "lon": -114.84558837499485, "alt_km": 1056.1815919839391, "timestamp": "2025-12-15T11:38:37.442341+00:00", "meta": {"OBJECT_NAME": "FENGYUN 1C DEB", "OBJECT_ID": "1999-025EEC", "EPOCH": "2025-12-13T18:09:13.099104", "MEAN_MOTION": 13.70836085, "ECCENTRICITY": 0.05085884, "INCLINATION": 98.9604, "RA_OF_ASC_NODE": 93.7895, "ARG_OF_PERICENTER": 158.6694, "MEAN_ANOMALY": 203.6512, "EPHEMERIS_TYPE": 0, "CLASSIFICATION_TYPE": "U", "NORAD_CAT_ID": 37044, "ELEMENT_SET_NO": 999, "REV_AT_EPOCH": 83872, "BSTAR": 0.0035079528, "MEAN_MOTION_DOT": 7.855e-05, "MEAN_MOTION_DDOT": 0}, "tle": {"line1": "1 37044U 99025EEC 25347.75640161  .00007855  00000+0  35080-2 0  9996", "line2": "2 37044  98.9604  93.7895 0508588 158.6694 203.6512 13.70836085838728"}}, "geometry": {"type": "Point", "coordinates": [-114.84558837499485, -72.6129959734417]}}, {"type": "Feature", "properties": {"norad_id": 37046, "name": "FENGYUN 1C DEB", "group": "fengyun-1c-debris", "lat": 76.09099233212937, "lon": -138.95320342912666, "alt_km": 835.1490106553183, "timestamp": "2025-12-15T11:38:37.442351+00:00", "meta": {"OBJECT_NAME": "FENGYUN 1C DEB", "OBJECT_ID": "1999-025EEE", "EPOCH": "2025-12-13T20:24:25.794720", "MEAN_MOTION": 14.24846266, "ECCENTRICITY": 0.00488893, "INCLINATION": 98.5444, "RA_OF_ASC_NODE": 2.0767, "ARG_OF_PERICENTER": 303.8823, "MEAN_ANOMALY": 55.7711, "EPHEMERIS_TYPE": 0, "CLASSIFICATION_TYPE": "U", "NORAD_CAT_ID": 37046, "ELEMENT_SET_NO": 999, "REV_AT_EPOCH": 64197, "BSTAR": 0.00095077436, "MEAN_MOTION_DOT": 2.204e-05, "MEAN_MOTION_DDOT": 0}, "tle": {"line1": "1 37046U 99025EEE 25347.85029855  .00002204  00000+0  95077-3 0  9996", "line2": "2 37046  98.5444   2.0767 0048889 303.8823  55.7711 14.24846266641978"}}, "geometry": {"type": "Point", "coordinates": [-138.95320342912666, 76.09099233212937]}}, {"type": "Feature", "properties": {"norad_id": 37048, "name": "FENGYUN 1C DEB", "group": "fengyun-1c-debris", "lat": 71.70041963942018, "lon": -177.66248572568804, "alt_km": 936.8582881931816, "timestamp": "2025-12-15T11:38:37.442361+00:00", "meta": {"OBJECT_NAME": "FENGYUN 1C DEB", "OBJECT_ID": "1999-025EEG", "EPOCH": "2025-12-08T21:18:37.158048", "MEAN_MOTION": 13.6513296, "ECCENTRICITY": 0.025318, "INCLINATION": 98.885, "RA_OF_ASC_NODE": 204.5179, "ARG_OF_PERICENTER": 159.5311, "MEAN_ANOMALY": 272.4204, "EPHEMERIS_TYPE": 0, "CLASSIFICATION_TYPE": "U", "NORAD_CAT_ID": 37048, "ELEMENT_SET_NO": 999, "REV_AT_EPOCH": 62117, "BSTAR": 0.00022488, "MEAN_MOTION_DOT": 1.89e-06, "MEAN_MOTION_DDOT": 0}, "tle": {"line1": "1 37048U 99025EEG 25342.88793007  .00000189  00000+0  22488-3 0  9999", "line2": "2 37048  98.8850 204.5179 0253180 159.5311 272.4204 13.65132960621178"}}, "geometry": {"type": "Point", "coordinates": [-177.66248572568804, 71.70041963942018]}}, {"type": "Feature", "properties": {"norad_id": 37054, "name": "FENGYUN 1C DEB", "group": "fengyun-1c-debris", "lat": -80.46651634633497, "lon": 88.23879405840262, "alt_km": 905.929465763752, "timestamp": "2025-12-15T11:38:37.442371+00:00", "meta": {"OBJECT_NAME": "FENGYUN 1C DEB", "OBJECT_ID": "1999-025EEN", "EPOCH": "2025-12-12T16:25:24.585312", "MEAN_MOTION": 14.19450678, "ECCENTRICITY": 0.01011744, "INCLINATION": 98.5503, "RA_OF_ASC_NODE": 329.1465, "ARG_OF_PERICENTER": 105.4252, "MEAN_ANOMALY": 255.8127, "EPHEMERIS_TYPE": 0, "CLASSIFICATION_TYPE": "U", "NORAD_CAT_ID": 37054, "ELEMENT_SET_NO": 999, "REV_AT_EPOCH": 64428, "BSTAR": 0.00039484846, "MEAN_MOTION_DOT": 8.33e-06, "MEAN_MOTION_DDOT": 0}, "tle": {"line1": "1 37054U 99025EEN 25346.68431233  .00000833  00000+0  39485-3 0  9999", "line2": "2 37054  98.5503 329.1465 0101174 105.4252 255.8127 14.19450678644283"}}, "geometry": {"type": "Point", "coordinates": [88.23879405840262, -80.46651634633497]}}, {"type": "Feature", "properties": {"norad_id": 37056, "name": "FENGYUN 1C DEB", "group": "fengyun-1c-debris", "lat": 36.04695296509178, "lon": 5.346298716139035, "alt_km": 752.9353682515512, "timestamp": "2025-12-15T11:38:37.442381+00:00", "meta": {"OBJECT_NAME": "FENGYUN 1C DEB", "OBJECT_ID": "1999-025EEQ", "EPOCH": "2025-12-14T18:54:54.158112", "MEAN_MOTION": 14.50457792, "ECCENTRICITY": 0.02688944, "INCLINATION": 98.9823, "RA_OF_ASC_NODE": 11.2125, "ARG_OF_PERICENTER": 139.7032, "MEAN_ANOMALY": 222.4434, "EPHEMERIS_TYPE": 0, "CLASSIFICATION_TYPE": "U", "NORAD_CAT_ID": 37056, "ELEMENT_SET_NO": 999, "REV_AT_EPOCH": 65441, "BSTAR": 0.00028297381, "MEAN_MOTION_DOT": 1.702e-05, "MEAN_MOTION_DDOT": 0}, "tle": {"line1": "1 37056U 99025EEQ 25348.78812683  .00001702  00000+0  28297-3 0  9991", "line2": "2 37056  98.9823  11.2125 0268894 139.7032 222.4434 14.50457792654411"}}, "geometry": {"type": "Point", "coordinates": [5.346298716139035, 36.04695296509178]}}, {"type": "Feature", "properties": {"norad_id": 37057, "name": "FENGYUN 1C DEB", "group": "fengyun-1c-debris", "lat": -22.48050804493505, "lon": 7.9378826580600865, "alt_km": 1098.9564932706735, "timestamp": "2025-12-15T11:38:37.442391+00:00", "meta": {"OBJECT_NAME": "FENGYUN 1C DEB", "OBJECT_ID": "1999-025EER", "EPOCH": "2025-12-09T18:09:13.045536", "MEAN_MOTION": 13.96100617, "ECCENTRICITY": 0.02851594, "INCLINATION": 98.9229, "RA_OF_ASC_NODE": 358.6511, "ARG_OF_PERICENTER": 147.6005, "MEAN_ANOMALY": 214.3028, "EPHEMERIS_TYPE": 0, "CLASSIFICATION_TYPE": "U", "NORAD_CAT_ID": 37057, "ELEMENT_SET_NO": 999, "REV_AT_EPOCH": 63556, "BSTAR": 0.00066354715, "MEAN_MOTION_DOT": 1.241e-05, "MEAN_MOTION_DDOT": 0}, "tle": {"line1": "1 37057U 99025EER 25343.75640099  .00001241  00000+0  66355-3 0  9999", "line2": "2 37057  98.9229 358.6511 0285159 147.6005 214.3028 13.96100617635564"}}, "geometry": {"type": "Point", "coordinates": [7.9378826580600865, -22.48050804493505]}}, {"type": "Feature", "properties": {"norad_id": 37061, "name": "FENGYUN 1C DEB", "group": "fengyun-1c-debris", "lat": -30.851121967041003, "lon": -131.63982567831704, "alt_km": 1714.4631635913374, "timestamp": "2025-12-15T11:38:37.442401+00:00", "meta": {"OBJECT_NAME": "FENGYUN 1C DEB", "OBJECT_ID": "1999-025EEV", "EPOCH": "2025-12-14T10:46:55.893792", "MEAN_MOTION": 13.13545226, "ECCENTRICITY": 0.08017009, "INCLINATION": 98.0852, "RA_OF_ASC_NODE": 52.431, "ARG_OF_PERICENTER": 1.338, "MEAN_ANOMALY": 358.9644, "EPHEMERIS_TYPE": 0, "CLASSIFICATION_TYPE": "U", "NORAD_CAT_ID": 37061, "ELEMENT_SET_NO": 999, "REV_AT_EPOCH": 8178, "BSTAR": 0.0025129601, "MEAN_MOTION_DOT": 4.866e-05, "MEAN_MOTION_DDOT": 0}, "tle": {"line1": "1 37061U 99025EEV 25348.44925803  .00004866  00000+0  25130-2 0  9995", "line2": "2 37061  98.0852  52.4310 0801700   1.3380 358.9644 13.13545226 81782"}}, "geometry": {"type": "Point", "coordinates": [-131.63982567831704, -30.851121967041003]}}, {"type": "Feature", "properties": {"norad_id": 37064, "name": "FENGYUN 1C DEB", "group": "fengyun-1c-debris", "lat": 52.994288076771426, "lon": 129.61104244279917, "alt_km": 774.9676180468223, "timestamp": "2025-12-15T11:38:37.442411+00:00", "meta": {"OBJECT_NAME": "FENGYUN 1C DEB", "OBJECT_ID": "1999-025EEY", "EPOCH": "2025-11-25T16:29:09.460320", "MEAN_MOTION": 14.15612933, "ECCENTRICITY": 0.01070067, "INCLINATION": 98.9095, "RA_OF_ASC_NODE": 121.83, "ARG_OF_PERICENTER": 150.7609, "MEAN_ANOMALY": 209.9612, "EPHEMERIS_TYPE": 0, "CLASSIFICATION_TYPE": "U", "NORAD_CAT_ID": 37064, "ELEMENT_SET_NO": 999, "REV_AT_EPOCH": 81294, "BSTAR": 0.0049331234, "MEAN_MOTION_DOT": 0.00010179, "MEAN_MOTION_DDOT": 0}, "tle": {"line1": "1 37064U 99025EEY 25329.68691505  .00010179  00000+0  49331-2 0  9995", "line2": "2 37064  98.9095 121.8300 0107006 150.7609 209.9612 14.15612933812947"}}, "geometry": {"type": "Point", "coordinates": [129.61104244279917, 52.994288076771426]}}]}